EUTELSAT 21B            
1 38992U 12062B   25213.33756260  .00000138  00000+0  00000+0 0  9997
2 38992   0.0671  10.8680 0002908 117.4346 324.9809  1.00271941 46623
EUTELSAT 70B            
1 39020U 12069A   25213.20446618 -.00000036  00000+0  00000+0 0  9994
2 39020   0.0627  12.0659 0003515 119.8869 322.1906  1.00271691 46303
EUTELSAT 117 WEST A     
1 39122U 13012A   25214.16671900 -.00000003  00000+0  00000+0 0  9990
2 39122   0.0452 271.6640 0002965 219.5125 123.0407  1.00271297 45266
EUTELSAT 7B             
1 39163U 13022A   25213.26326843  .00000056  00000+0  00000+0 0  9996
2 39163   0.0726 335.3499 0003005  80.5007 356.0224  1.00271134 44743
EXPRESS-AT1             
1 39612U 14010A   25214.41497916  .00000088  00000+0  00000+0 0  9996
2 39612   0.0078  59.4631 0000480 334.9901 122.1825  1.00271744 41852
EXPRESS-AT2             
1 39613U 14010B   25214.28894799 -.00000272  00000+0  00000+0 0  9998
2 39613   0.0113  68.2719 0000248   1.3501 125.3695  1.00271440 41685
EUTELSAT 3B             
1 39773U 14030A   25213.26248841  .00000028  00000+0  00000+0 0  9993
2 39773   0.0619  12.6327 0004203 121.7981 273.2535  1.00272373 40855
EUTELSAT 115 WEST B     
1 40425U 15010B   25214.49280786 -.00000015  00000+0  00000+0 0  9995
2 40425   0.0256 101.9801 0000801 129.3026 142.5534  1.00270628 38238
